0 COSMOS 2251 DEB
1 35612U 93036ANF 13282.29943005  .00017452  00000-0  31431-2 0  7100
2 35612 074.0245 026.8733 0048195 186.8137 204.7545 14.65787146228414
0 COSMOS 2251 DEB
1 35612U 93036ANF 13283.25425323  .00015534  00000-0  27978-2 0  7116
2 35612 074.0244 025.0330 0048091 184.8856 203.0791 14.65809055228541
0 COSMOS 2251 DEB
1 35612U 93036ANF 13285.73633625  .00011529  00000-0  20771-2 0  7133
2 35612 074.0246 020.2484 0047850 179.8535 340.6994 14.65864024228911
0 COSMOS 2251 DEB
1 35612U 93036ANF 13287.70899713  .00015451  00000-0  27778-2 0  7147
2 35612 074.0260 016.4468 0047577 175.3472 311.0235 14.65907439229204
0 COSMOS 2251 DEB
1 35612U 93036ANF 13288.93646068  .00016244  00000-0  29173-2 0  7159
2 35612 074.0268 014.0808 0047327 172.8436 308.6152 14.65951941229385
0 COSMOS 2251 DEB
1 35612U 93036ANF 13289.60867135  .00016448  00000-0  29532-2 0  7160
2 35612 074.0268 012.7850 0047235 171.3361 256.2255 14.65963287229485
0 COSMOS 2251 DEB
1 35612U 93036ANF 13292.62243552  .00012458  00000-0  22361-2 0  7178
2 35612 074.0258 006.9756 0046920 165.0917 321.4164 14.66041491229929
0 COSMOS 2251 DEB
1 35612U 93036ANF 13294.17353326  .00013604  00000-0  24392-2 0  7182
2 35612 074.0249 003.9842 0046801 161.5023 228.0486 14.66076069230143
0 COSMOS 2251 DEB
1 35612U 93036ANF 13295.19749942  .00014231  00000-0  25500-2 0  7198
2 35612 074.0248 002.0098 0046609 159.4097 232.3252 14.66099118230305
